H1 CPF  1  DGF 2022 05 06 11  6261 larets     NONE      
H2   304206 5557    27944 2022 05 06 00 00 00 2022 05 13 00 00 00    30 1 1  0 0 0
H5  0.0650
H9
10 0 59709  57600.000000  0       4253968.882      -3101194.749      -4729493.017
10 0 59709  57630.000000  0       4100629.083      -3056639.556      -4891293.536
10 0 59709  57660.000000  0       3943369.570      -3008331.627      -5048139.814
10 0 59709  57690.000000  0       3782365.729      -2956303.474      -5199874.187
10 0 59709  57720.000000  0       3617796.452      -2900592.080      -5346344.200
10 0 59709  57750.000000  0       3449843.941      -2841238.870      -5487402.748
10 0 59709  57780.000000  0       3278693.505      -2778289.684      -5622908.220
10 0 59709  57810.000000  0       3104533.355      -2711794.739      -5752724.627
10 0 59709  57840.000000  0       2927554.398      -2641808.595      -5876721.729
10 0 59709  57870.000000  0       2747950.029      -2568390.105      -5994775.163
10 0 59709  57900.000000  0       2565915.923      -2491602.370      -6106766.555
10 0 59709  57930.000000  0       2381649.820      -2411512.682      -6212583.633
10 0 59709  57960.000000  0       2195351.312      -2328192.463      -6312120.332
10 0 59709  57990.000000  0       2007221.625      -2241717.201      -6405276.894
10 0 59709  58020.000000  0       1817463.408      -2152166.379      -6491959.955
10 0 59709  58050.000000  0       1626280.512      -2059623.403      -6572082.632
10 0 59709  58080.000000  0       1433877.779      -1964175.522      -6645564.597
10 0 59709  58110.000000  0       1240460.822      -1865913.745      -6712332.154
10 0 59709  58140.000000  0       1046235.819      -1764932.762      -6772318.296
10 0 59709  58170.000000  0        851409.292      -1661330.850      -6825462.778
10 0 59709  58200.000000  0        656187.894      -1555209.784      -6871712.167
10 0 59709  58230.000000  0        460778.192      -1446674.732      -6911019.891
10 0 59709  58260.000000  0        265386.459      -1335834.158      -6943346.277
10 0 59709  58290.000000  0         70218.461      -1222799.713      -6968658.591
10 0 59709  58320.000000  0       -124520.753      -1107686.131      -6986931.066
10 0 59709  58350.000000  0       -318627.055       -990611.114      -6998144.928
10 0 59709  58380.000000  0       -511897.453       -871695.217      -7002288.419
10 0 59709  58410.000000  0       -704130.292       -751061.727      -6999356.810
10 0 59709  58440.000000  0       -895125.468       -628836.539      -6989352.403
10 0 59709  58470.000000  0      -1084684.622       -505148.027      -6972284.534
10 0 59709  58500.000000  0      -1272611.349       -380126.914      -6948169.565
10 0 59709  58530.000000  0      -1458711.391       -253906.141      -6917030.869
10 0 59709  58560.000000  0      -1642792.836       -126620.726      -6878898.817
10 0 59709  58590.000000  0      -1824666.307          1592.369      -6833810.746
10 0 59709  58620.000000  0      -2004145.159        130594.386      -6781810.935
10 0 59709  58650.000000  0      -2181045.658        260244.910      -6722950.564
10 0 59709  58680.000000  0      -2355187.173        390402.024      -6657287.676
10 0 59709  58710.000000  0      -2526392.354        520922.452      -6584887.126
10 0 59709  58740.000000  0      -2694487.312        651661.717      -6505820.532
10 0 59709  58770.000000  0      -2859301.796        782474.295      -6420166.205
10 0 59709  58800.000000  0      -3020669.362        913213.774      -6328009.093
10 0 59709  58830.000000  0      -3178427.546       1043733.009      -6229440.704
10 0 59709  58860.000000  0      -3332418.032       1173884.289      -6124559.026
10 0 59709  58890.000000  0      -3482486.812       1303519.496      -6013468.444
10 0 59709  58920.000000  0      -3628484.343       1432490.273      -5896279.648
10 0 59709  58950.000000  0      -3770265.705       1560648.188      -5773109.531
10 0 59709  58980.000000  0      -3907690.745       1687844.905      -5644081.087
10 0 59709  59010.000000  0      -4040624.226       1813932.356      -5509323.303
10 0 59709  59040.000000  0      -4168935.963       1938762.912      -5368971.036
10 0 59709  59070.000000  0      -4292500.961       2062189.555      -5223164.893
10 0 59709  59100.000000  0      -4411199.547       2184066.052      -5072051.093
10 0 59709  59130.000000  0      -4524917.485       2304247.128      -4915781.334
10 0 59709  59160.000000  0      -4633546.101       2422588.632      -4754512.648
10 0 59709  59190.000000  0      -4736982.390       2538947.716      -4588407.253
10 0 59709  59220.000000  0      -4835129.124       2653183.004      -4417632.400
10 0 59709  59250.000000  0      -4927894.953       2765154.766      -4242360.214
10 0 59709  59280.000000  0      -5015194.498       2874725.084      -4062767.528
10 0 59709  59310.000000  0      -5096948.443       2981758.027      -3879035.714
10 0 59709  59340.000000  0      -5173083.615       3086119.821      -3691350.507
10 0 59709  59370.000000  0      -5243533.065       3187679.019      -3499901.822
10 0 59709  59400.000000  0      -5308236.135       3286306.666      -3304883.564
10 0 59709  59430.000000  0      -5367138.513       3381876.471      -3106493.435
10 0 59709  59460.000000  0      -5420192.295       3474264.963      -2904932.735
10 0 59709  59490.000000  0      -5467356.025       3563351.653      -2700406.160
10 0 59709  59520.000000  0      -5508594.738       3649019.195      -2493121.598
10 0 59709  59550.000000  0      -5543879.991       3731153.540      -2283289.916
10 0 59709  59580.000000  0      -5573189.896       3809644.086      -2071124.745
10 0 59709  59610.000000  0      -5596509.132       3884383.832      -1856842.257
10 0 59709  59640.000000  0      -5613828.953       3955269.520      -1640660.944
10 0 59709  59670.000000  0      -5625147.196       4022201.775      -1422801.385
10 0 59709  59700.000000  0      -5630468.268       4085085.245      -1203486.024
10 0 59709  59730.000000  0      -5629803.135       4143828.733       -982938.937
10 0 59709  59760.000000  0      -5623169.302       4198345.326       -761385.593
10 0 59709  59790.000000  0      -5610590.785       4248552.525       -539052.622
10 0 59709  59820.000000  0      -5592098.074       4294372.359       -316167.570
10 0 59709  59850.000000  0      -5567728.089       4335731.505        -92958.657
10 0 59709  59880.000000  0      -5537524.123       4372561.393        130345.467
10 0 59709  59910.000000  0      -5501535.785       4404798.307        353515.968
10 0 59709  59940.000000  0      -5459818.921       4432383.484        576324.071
10 0 59709  59970.000000  0      -5412435.546       4455263.200        798541.299
10 0 59709  60000.000000  0      -5359453.758       4473388.859       1019939.722
10 0 59709  60030.000000  0      -5300947.646       4486717.073       1240292.195
10 0 59709  60060.000000  0      -5236997.194       4495209.732       1459372.610
10 0 59709  60090.000000  0      -5167688.169       4498834.069       1676956.133
10 0 59709  60120.000000  0      -5093112.015       4497562.719       1892819.440
10 0 59709  60150.000000  0      -5013365.729       4491373.777       2106740.954
10 0 59709  60180.000000  0      -4928551.742       4480250.843       2318501.088
10 0 59709  60210.000000  0      -4838777.783       4464183.067       2527882.471
10 0 59709  60240.000000  0      -4744156.739       4443165.177       2734670.189
10 0 59709  60270.000000  0      -4644806.513       4417197.510       2938652.006
10 0 59709  60300.000000  0      -4540849.877       4386286.026       3139618.594
10 0 59709  60330.000000  0      -4432414.311       4350442.324       3337363.751
10 0 59709  60360.000000  0      -4319631.848       4309683.645       3531684.619
10 0 59709  60390.000000  0      -4202638.906       4264032.871       3722381.899
10 0 59709  60420.000000  0      -4081576.120       4213518.516       3909260.056
10 0 59709  60450.000000  0      -3956588.168       4158174.713       4092127.525
10 0 59709  60480.000000  0      -3827823.599       4098041.195       4270796.911
10 0 59709  60510.000000  0      -3695434.647       4033163.261       4445085.186
10 0 59709  60540.000000  0      -3559577.041       3963591.749       4614813.881
10 0 59709  60570.000000  0      -3420409.817       3889382.983       4779809.268
10 0 59709  60600.000000  0      -3278095.132       3810598.733       4939902.537
10 0 59709  60630.000000  0      -3132798.059       3727306.154       5094929.969
10 0 59709  60660.000000  0      -2984686.401       3639577.730       5244733.104
10 0 59709  60690.000000  0      -2833930.480       3547491.206       5389158.903
10 0 59709  60720.000000  0      -2680702.944       3451129.509       5528059.903
10 0 59709  60750.000000  0      -2525178.557       3350580.675       5661294.360
10 0 59709  60780.000000  0      -2367533.998       3245937.758       5788726.397
10 0 59709  60810.000000  0      -2207947.653       3137298.743       5910226.134
10 0 59709  60840.000000  0      -2046599.409       3024766.445       6025669.821
10 0 59709  60870.000000  0      -1883670.446       2908448.408       6134939.958
10 0 59709  60900.000000  0      -1719343.023       2788456.796       6237925.413
10 0 59709  60930.000000  0      -1553800.277       2664908.271       6334521.518
10 0 59709  60960.000000  0      -1387226.011       2537923.883       6424630.175
10 0 59709  60990.000000  0      -1219804.492       2407628.943       6508159.942
10 0 59709  61020.000000  0      -1051720.250       2274152.903       6585026.128
10 0 59709  61050.000000  0       -883157.874       2137629.217       6655150.872
10 0 59709  61080.000000  0       -714301.799       1998195.209       6718463.225
10 0 59709  61110.000000  0       -545336.112       1855991.926       6774899.213
10 0 59709  61140.000000  0       -376444.339       1711163.991       6824401.898
10 0 59709  61170.000000  0       -207809.251       1563859.454       6866921.429
99
